#dV2023  2 16 10  0  0.00000000    1682       CTS   FIT  GFZ
## 2249 381600.00000000    30.00000000 59991 0.4166666666667
+    1   L64  0  0  0  0  0  0  0  0  0  0  0  0  0  0  0  0
+          0  0  0  0  0  0  0  0  0  0  0  0  0  0  0  0  0
+          0  0  0  0  0  0  0  0  0  0  0  0  0  0  0  0  0
+          0  0  0  0  0  0  0  0  0  0  0  0  0  0  0  0  0
+          0  0  0  0  0  0  0  0  0  0  0  0  0  0  0  0  0
++         0  0  0  0  0  0  0  0  0  0  0  0  0  0  0  0  0
++         0  0  0  0  0  0  0  0  0  0  0  0  0  0  0  0  0
++         0  0  0  0  0  0  0  0  0  0  0  0  0  0  0  0  0
++         0  0  0  0  0  0  0  0  0  0  0  0  0  0  0  0  0
++         0  0  0  0  0  0  0  0  0  0  0  0  0  0  0  0  0
%c L  cc GPS ccc cccc cccc cccc cccc ccccc ccccc ccccc ccccc
%c cc cc ccc ccc cccc cccc cccc cccc ccccc ccccc ccccc ccccc
%f  0.0000000  0.000000000  0.00000000000  0.000000000000000
%f  0.0000000  0.000000000  0.00000000000  0.000000000000000
%i    0    0    0    0      0      0      0      0         0
%i    0    0    0    0      0      0      0      0         0
/* CCCCCCCCCCCCCCCCCCCCCCCCCCCCCCCCCCCCCCCCCCCCCCCCCCCCCCCCCCCCCCCCCCCCCCCCCCCCC
/* C                             GFZ RSO-ORBIT                                 C
/* C DOI: https://doi.org/10.5880/GFZ_ORBIT/RSO/L64_G_v02                      C
/* C                                                                           C
/* C DORIS        RMS: not applicable                                          C
/* C GNSS-E Code  RMS: not applicable                                          C
/* C GNSS-E Phase RMS: not applicable                                          C
/* C GNSS-G Code  RMS:  54.739 [cm]   Obs.acc.:     13365 Obs.eli.:      1008  C
/* C GNSS-G Phase RMS:   5.274 [mm]   Obs.acc.:     13365 Obs.eli.:      1008  C
/* C SLR          RMS:   1.549 [cm]   Obs.acc.:        31 Obs.eli.:         0  C
/* C                                                                           C
/* CCCCCCCCCCCCCCCCCCCCCCCCCCCCCCCCCCCCCCCCCCCCCCCCCCCCCCCCCCCCCCCCCCCCCCCCCCCCC
*  2023  2 16 13 24  0.00000000
PL64  -4536.264531  -1405.404090   4941.140957  17044.380575
VL64 -53068.732648 -14840.352418 -52801.650112 999999.999999
*  2023  2 16 13 24 30.00000000
PL64  -4693.025918  -1448.794220   4780.010638  17044.840517
VL64 -51428.637791 -14084.919457 -54608.608348 999999.999999
*  2023  2 16 13 25  0.00000000
PL64  -4844.775934  -1489.905271   4613.550041  17045.300514
VL64 -49728.121550 -13321.150937 -56354.834512 999999.999999
*  2023  2 16 13 25 30.00000000
PL64  -4991.336078  -1528.713899   4441.944335  17045.760566
VL64 -47969.038312 -12550.155257 -58038.358207 999999.999999
*  2023  2 16 13 26  0.00000000
PL64  -5132.533521  -1565.200084   4265.384497  17046.220620
VL64 -46153.314342 -11773.041052 -59657.278492 999999.999999
*  2023  2 16 13 26 30.00000000
PL64  -5268.201318  -1599.347134   4084.067099  17046.680634
VL64 -44282.946429 -10990.915977 -61209.766236 999999.999999
*  2023  2 16 13 27  0.00000000
PL64  -5398.178619  -1631.141675   3898.194089  17047.140612
VL64 -42359.999680 -10204.885120 -62694.067040 999999.999999
*  2023  2 16 13 27 30.00000000
PL64  -5522.310866  -1660.573640   3707.972564  17047.600558
VL64 -40386.604589  -9416.049231 -64108.503259 999999.999999
*  2023  2 16 13 28  0.00000000
PL64  -5640.449989  -1687.636260   3513.614537  17048.060656
VL64 -38364.954870  -8625.503355 -65451.475341 999999.999999
*  2023  2 16 13 28 30.00000000
PL64  -5752.454593  -1712.326039   3315.336699  17048.520675
VL64 -36297.305468  -7834.335614 -66721.463841 999999.999999
*  2023  2 16 13 29  0.00000000
PL64  -5858.190134  -1734.642732   3113.360178  17048.980557
VL64 -34185.970191  -7043.626004 -67917.031033 999999.999999
*  2023  2 16 13 29 30.00000000
PL64  -5957.529098  -1754.589324   2907.910290  17049.440497
VL64 -32033.320346  -6254.445185 -69036.823029 999999.999999
*  2023  2 16 13 30  0.00000000
PL64  -6050.351167  -1772.171992   2699.216285  17049.900437
VL64 -29841.782334  -5467.852869 -70079.572956 999999.999999
*  2023  2 16 13 30 30.00000000
PL64  -6136.543381  -1787.400077   2487.511075  17050.360519
VL64 -27613.834768  -4684.896050 -71044.103628 999999.999999
*  2023  2 16 13 31  0.00000000
PL64  -6216.000291  -1800.286037   2273.030970  17050.820363
VL64 -25352.004699  -3906.606933 -71929.330775 999999.999999
*  2023  2 16 13 31 30.00000000
PL64  -6288.624095  -1810.845403   2056.015387  17051.280014
VL64 -23058.861754  -3134.001151 -72734.264794 999999.999999
*  2023  2 16 13 32  0.00000000
PL64  -6354.324755  -1819.096726   1836.706573  17051.739704
VL64 -20737.013608  -2368.076705 -73458.009892 999999.999999
*  2023  2 16 13 32 30.00000000
PL64  -6413.020114  -1825.061524   1615.349322  17052.199188
VL64 -18389.103636  -1609.813033 -74099.763576 999999.999999
*  2023  2 16 13 33  0.00000000
PL64  -6464.635992  -1828.764225   1392.190694  17052.658575
VL64 -16017.808979   -860.169819 -74658.817396 999999.999999
*  2023  2 16 13 33 30.00000000
PL64  -6509.106290  -1830.232103   1167.479734  17053.118042
VL64 -13625.838042   -120.085517 -75134.558273 999999.999999
*  2023  2 16 13 34  0.00000000
PL64  -6546.373079  -1829.495214    941.467177  17053.577683
VL64 -11215.927514    609.524191 -75526.470252 999999.999999
*  2023  2 16 13 34 30.00000000
PL64  -6576.386676  -1826.586324    714.405162  17054.037370
VL64  -8790.838137   1327.768095 -75834.135927 999999.999999
*  2023  2 16 13 35  0.00000000
PL64  -6599.105709  -1821.540837    486.546930  17054.496993
VL64  -6353.350429   2033.780749 -76057.236644 999999.999999
*  2023  2 16 13 35 30.00000000
PL64  -6614.497176  -1814.396711    258.146530  17054.956636
VL64  -3906.261012   2726.723278 -76195.552656 999999.999999
*  2023  2 16 13 36  0.00000000
PL64  -6622.536482  -1805.194380     29.458522  17055.416306
VL64  -1452.378757   3405.784170 -76248.963255 999999.999999
*  2023  2 16 13 36 30.00000000
PL64  -6623.207473  -1793.976672   -199.262319  17055.876005
VL64   1005.478921   4070.180196 -76217.446654 999999.999999
*  2023  2 16 13 37  0.00000000
PL64  -6616.502456  -1780.788719   -427.761304  17056.335757
VL64   3464.489776   4719.157430 -76101.079476 999999.999999
*  2023  2 16 13 37 30.00000000
PL64  -6602.422206  -1765.677871   -655.784117  17056.795639
VL64   5921.829611   5351.992077 -75900.036217 999999.999999
*  2023  2 16 13 38  0.00000000
PL64  -6580.975972  -1748.693603   -883.077115  17057.255604
VL64   8374.675619   5967.991447 -75614.589721 999999.999999
*  2023  2 16 13 38 30.00000000
PL64  -6552.181463  -1729.887419  -1109.387619  17057.715574
VL64  10820.211056   6566.495020 -75245.110659 999999.999999
*  2023  2 16 13 39  0.00000000
PL64  -6516.064824  -1709.312757  -1334.464210  17058.175500
VL64  13255.628844   7146.875214 -74792.065933 999999.999999
*  2023  2 16 13 39 30.00000000
PL64  -6472.660602  -1687.024886  -1558.057009  17058.635420
VL64  15678.134686   7708.537940 -74256.018063 999999.999999
*  2023  2 16 13 40  0.00000000
PL64  -6422.011706  -1663.080808  -1779.917969  17059.095266
VL64  18084.951024   8250.922994 -73637.624475 999999.999999
*  2023  2 16 13 40 30.00000000
PL64  -6364.169344  -1637.539153  -1999.801157  17059.555040
VL64  20473.320685   8773.504466 -72937.635959 999999.999999
*  2023  2 16 13 41  0.00000000
PL64  -6299.192963  -1610.460077  -2217.463030  17060.014889
VL64  22840.509676   9275.791428 -72156.895196 999999.999999
*  2023  2 16 13 41 30.00000000
PL64  -6227.150175  -1581.905156  -2432.662707  17060.474596
VL64  25183.810116   9757.328615 -71296.335886 999999.999999
*  2023  2 16 13 42  0.00000000
PL64  -6148.116670  -1551.937275  -2645.162247  17060.934266
VL64  27500.543894  10217.697065 -70356.981693 999999.999999
*  2023  2 16 13 42 30.00000000
PL64  -6062.176124  -1520.620525  -2854.726911  17061.394000
VL64  29788.066347  10656.514496 -69339.944351 999999.999999
*  2023  2 16 13 43  0.00000000
PL64  -5969.420093  -1488.020086  -3061.125425  17061.853700
VL64  32043.769449  11073.435254 -68246.421491 999999.999999
*  2023  2 16 13 43 30.00000000
PL64  -5869.947897  -1454.202121  -3264.130233  17062.313550
VL64  34265.084506  11468.150167 -67077.694587 999999.999999
*  2023  2 16 13 44  0.00000000
PL64  -5763.866502  -1419.233665  -3463.517750  17062.773183
VL64  36449.484691  11840.386643 -65835.127461 999999.999999
*  2023  2 16 13 44 30.00000000
PL64  -5651.290387  -1383.182516  -3659.068600  17063.233046
VL64  38594.488265  12189.909122 -64520.164777 999999.999999
*  2023  2 16 13 45  0.00000000
PL64  -5532.341404  -1346.117124  -3850.567863  17063.693159
VL64  40697.661845  12516.519299 -63134.329488 999999.999999
*  2023  2 16 13 45 30.00000000
PL64  -5407.148631  -1308.106475  -4037.805300  17064.153133
VL64  42756.622620  12820.055800 -61679.220270 999999.999999
*  2023  2 16 13 46  0.00000000
PL64  -5275.848213  -1269.219989  -4220.575581  17064.612993
VL64  44769.040554  13100.393873 -60156.509895 999999.999999
*  2023  2 16 13 46 30.00000000
PL64  -5138.583206  -1229.527400  -4398.678501  17065.073006
VL64  46732.641375  13357.445454 -58567.943456 999999.999999
*  2023  2 16 13 47  0.00000000
PL64  -4995.503400  -1189.098655  -4571.919198  17065.532986
VL64  48645.209603  13591.159144 -56915.335713 999999.999999
*  2023  2 16 13 47 30.00000000
PL64  -4846.765138  -1148.003799  -4740.108354  17065.992642
VL64  50504.591104  13801.519706 -55200.568207 999999.999999
*  2023  2 16 13 48  0.00000000
PL64  -4692.531132  -1106.312871  -4903.062391  17066.452225
VL64  52308.695524  13988.547460 -53425.586454 999999.999999
*  2023  2 16 13 48 30.00000000
PL64  -4532.970269  -1064.095793  -5060.603663  17066.911652
VL64  54055.497987  14152.297940 -51592.396894 999999.999999
*  2023  2 16 13 49  0.00000000
PL64  -4368.257407  -1021.422271  -5212.560628  17067.371577
VL64  55743.040040  14292.861503 -49703.064529 999999.999999
EOF
